start=new Date('2023-04-11T00:00:00.000Z').valueOf();
sats=[{"GP_ID":"229846922","SITE":"AFETR","OBJECT_TYPE":"PAYLOAD","SEMIMAJOR_AXIS":"6925.345","RCS_SIZE":"LARGE","REF_FRAME":"TEME","NORAD_CAT_ID":"48688","EPHEMERIS_TYPE":"0","RA_OF_ASC_NODE":"163.7355","LAUNCH_DATE":"2021-05-26","COUNTRY_CODE":"US","ARG_OF_PERICENTER":"105.8037","ECCENTRICITY":"0.00013840","TLE_LINE1":"1 48688U 21044BC  23100.54849238  .00002262  00000-0  17070-3 0  9994","INCLINATION":"53.0543","PERIOD":"95.592","FILE":"3885195","EPOCH":"2023-04-10T13:09:49.741632","CLASSIFICATION_TYPE":"U","ELEMENT_SET_NO":"999","MEAN_MOTION":"15.06401145","REV_AT_EPOCH":"10408","OBJECT_NAME":"STARLINK-2742","DECAY_DATE":null,"OBJECT_ID":"2021-044BC","MEAN_MOTION_DOT":"0.00002262","TLE_LINE2":"2 48688  53.0543 163.7355 0001384 105.8037 254.3104 15.06401145104085","MEAN_MOTION_DDOT":"0.0000000000000","TIME_SYSTEM":"UTC","CENTER_NAME":"EARTH","MEAN_ELEMENT_THEORY":"SGP4","MEAN_ANOMALY":"254.3104","PERIAPSIS":"546.252","BSTAR":"0.00017070000000","APOAPSIS":"548.169"},{"MEAN_MOTION":"15.06420329","ELEMENT_SET_NO":"999","CLASSIFICATION_TYPE":"U","EPOCH":"2023-04-10T21:14:48.441696","MEAN_MOTION_DOT":"0.00018702","OBJECT_NAME":"STARLINK-2617","REV_AT_EPOCH":"10406","OBJECT_ID":"2021-044BD","DECAY_DATE":null,"MEAN_MOTION_DDOT":"0.0000000000000","TIME_SYSTEM":"UTC","CENTER_NAME":"EARTH","TLE_LINE2":"2 48689  53.0519 167.1935 0001528  77.0181 283.0978 15.06420329104062","MEAN_ANOMALY":"283.0978","PERIAPSIS":"546.093","APOAPSIS":"548.209","BSTAR":"0.00127040000000","MEAN_ELEMENT_THEORY":"SGP4","NORAD_CAT_ID":"48689","REF_FRAME":"TEME","GP_ID":"229878626","SEMIMAJOR_AXIS":"6925.286","RCS_SIZE":"LARGE","OBJECT_TYPE":"PAYLOAD","SITE":"AFETR","LAUNCH_DATE":"2021-05-26","RA_OF_ASC_NODE":"167.1935","EPHEMERIS_TYPE":"0","INCLINATION":"53.0519","PERIOD":"95.591","COUNTRY_CODE":"US","TLE_LINE1":"1 48689U 21044BD  23100.88528289  .00018702  00000-0  12704-2 0  9996","ECCENTRICITY":"0.00015280","ARG_OF_PERICENTER":"77.0181","FILE":"3885363"},{"RA_OF_ASC_NODE":"180.1712","EPHEMERIS_TYPE":"0","LAUNCH_DATE":"2021-05-26","SEMIMAJOR_AXIS":"6925.305","RCS_SIZE":"LARGE","SITE":"AFETR","OBJECT_TYPE":"PAYLOAD","GP_ID":"229847924","REF_FRAME":"TEME","NORAD_CAT_ID":"48690","FILE":"3885195","TLE_LINE1":"1 48690U 21044BE  23100.22828668  .00022803  00000-0  15442-2 0  9999","ECCENTRICITY":"0.00021800","ARG_OF_PERICENTER":"83.2266","COUNTRY_CODE":"US","PERIOD":"95.591","INCLINATION":"53.0511","DECAY_DATE":null,"OBJECT_ID":"2021-044BE","OBJECT_NAME":"STARLINK-2740","REV_AT_EPOCH":"10382","MEAN_MOTION_DOT":"0.00022803","EPOCH":"2023-04-10T05:28:43.969152","CLASSIFICATION_TYPE":"U","MEAN_MOTION":"15.06414218","ELEMENT_SET_NO":"999","MEAN_ELEMENT_THEORY":"SGP4","APOAPSIS":"548.680","BSTAR":"0.00154420000000","PERIAPSIS":"545.660","MEAN_ANOMALY":"276.8971","TLE_LINE2":"2 48690  53.0511 180.1712 0002180  83.2266 276.8971 15.06414218103828","TIME_SYSTEM":"UTC","MEAN_MOTION_DDOT":"0.0000000000000","CENTER_NAME":"EARTH"},{"OBJECT_TYPE":"PAYLOAD","SITE":"AFETR","SEMIMAJOR_AXIS":"6925.328","RCS_SIZE":"LARGE","GP_ID":"229848672","REF_FRAME":"TEME","NORAD_CAT_ID":"48691","RA_OF_ASC_NODE":"175.2965","EPHEMERIS_TYPE":"0","LAUNCH_DATE":"2021-05-26","ARG_OF_PERICENTER":"54.5505","ECCENTRICITY":"0.00015450","TLE_LINE1":"1 48691U 21044BF  23100.20110272  .00011457  00000-0  78662-3 0  9990","COUNTRY_CODE":"US","PERIOD":"95.592","INCLINATION":"53.0512","FILE":"3885195","EPOCH":"2023-04-10T04:49:35.275008","CLASSIFICATION_TYPE":"U","ELEMENT_SET_NO":"999","MEAN_MOTION":"15.06406591","OBJECT_ID":"2021-044BF","DECAY_DATE":null,"REV_AT_EPOCH":"10389","OBJECT_NAME":"STARLINK-2750","MEAN_MOTION_DOT":"0.00011457","TLE_LINE2":"2 48691  53.0512 175.2965 0001545  54.5505 305.5628 15.06406591103897","MEAN_MOTION_DDOT":"0.0000000000000","CENTER_NAME":"EARTH","TIME_SYSTEM":"UTC","MEAN_ELEMENT_THEORY":"SGP4","BSTAR":"0.00078662000000","APOAPSIS":"548.263","MEAN_ANOMALY":"305.5628","PERIAPSIS":"546.123"},{"SEMIMAJOR_AXIS":"6925.436","RCS_SIZE":"LARGE","OBJECT_TYPE":"PAYLOAD","SITE":"AFETR","GP_ID":"229878387","NORAD_CAT_ID":"48692","REF_FRAME":"TEME","EPHEMERIS_TYPE":"0","RA_OF_ASC_NODE":"173.1030","LAUNCH_DATE":"2021-05-26","ECCENTRICITY":"0.00003940","TLE_LINE1":"1 48692U 21044BG  23100.71712476  .00027561  00000-0  18634-2 0  9996","ARG_OF_PERICENTER":"5.9912","COUNTRY_CODE":"US","PERIOD":"95.594","INCLINATION":"53.0507","FILE":"3885363","CLASSIFICATION_TYPE":"U","EPOCH":"2023-04-10T17:12:39.579264","MEAN_MOTION":"15.06371340","ELEMENT_SET_NO":"999","DECAY_DATE":null,"OBJECT_ID":"2021-044BG","OBJECT_NAME":"STARLINK-2752","REV_AT_EPOCH":"10397","MEAN_MOTION_DOT":"0.00027561","TLE_LINE2":"2 48692  53.0507 173.1030 0000394   5.9912 354.1081 15.06371340103970","TIME_SYSTEM":"UTC","MEAN_MOTION_DDOT":"0.0000000000000","CENTER_NAME":"EARTH","MEAN_ELEMENT_THEORY":"SGP4","APOAPSIS":"547.574","BSTAR":"0.00186340000000","MEAN_ANOMALY":"354.1081","PERIAPSIS":"547.029"},{"FILE":"3885285","ARG_OF_PERICENTER":"97.3843","ECCENTRICITY":"0.00012740","TLE_LINE1":"1 48693U 21044BH  23100.59223547  .00029526  00000-0  19935-2 0  9997","COUNTRY_CODE":"US","PERIOD":"95.593","INCLINATION":"53.0527","EPHEMERIS_TYPE":"0","RA_OF_ASC_NODE":"178.5347","LAUNCH_DATE":"2021-05-26","OBJECT_TYPE":"PAYLOAD","SITE":"AFETR","RCS_SIZE":"LARGE","SEMIMAJOR_AXIS":"6925.388","GP_ID":"229854726","NORAD_CAT_ID":"48693","REF_FRAME":"TEME","MEAN_ELEMENT_THEORY":"SGP4","BSTAR":"0.00199350000000","APOAPSIS":"548.135","PERIAPSIS":"546.370","MEAN_ANOMALY":"262.7291","TLE_LINE2":"2 48693  53.0527 178.5347 0001274  97.3843 262.7291 15.06387259104726","TIME_SYSTEM":"UTC","MEAN_MOTION_DDOT":"0.0000000000000","CENTER_NAME":"EARTH","DECAY_DATE":null,"OBJECT_ID":"2021-044BH","REV_AT_EPOCH":"10472","OBJECT_NAME":"STARLINK-2618","MEAN_MOTION_DOT":"0.00029526","CLASSIFICATION_TYPE":"U","EPOCH":"2023-04-10T14:12:49.144608","ELEMENT_SET_NO":"999","MEAN_MOTION":"15.06387259"},{"FILE":"3885195","COUNTRY_CODE":"US","TLE_LINE1":"1 48694U 21044BJ  23100.22871422  .00012354  00000-0  84686-3 0  9996","ECCENTRICITY":"0.00018030","ARG_OF_PERICENTER":"78.5523","INCLINATION":"53.0508","PERIOD":"95.592","EPHEMERIS_TYPE":"0","RA_OF_ASC_NODE":"185.1595","LAUNCH_DATE":"2021-05-26","GP_ID":"229848424","SEMIMAJOR_AXIS":"6925.354","RCS_SIZE":"LARGE","OBJECT_TYPE":"PAYLOAD","SITE":"AFETR","REF_FRAME":"TEME","NORAD_CAT_ID":"48694","MEAN_ELEMENT_THEORY":"SGP4","PERIAPSIS":"545.970","MEAN_ANOMALY":"281.5668","APOAPSIS":"548.468","BSTAR":"0.00084686000000","TLE_LINE2":"2 48694  53.0508 185.1595 0001803  78.5523 281.5668 15.06398188103751","MEAN_MOTION_DDOT":"0.0000000000000","TIME_SYSTEM":"UTC","CENTER_NAME":"EARTH","OBJECT_NAME":"STARLINK-2748","REV_AT_EPOCH":"10375","DECAY_DATE":null,"OBJECT_ID":"2021-044BJ","MEAN_MOTION_DOT":"0.00012354","CLASSIFICATION_TYPE":"U","EPOCH":"2023-04-10T05:29:20.908608","MEAN_MOTION":"15.06398188","ELEMENT_SET_NO":"999"},{"MEAN_ELEMENT_THEORY":"SGP4","MEAN_ANOMALY":"283.2486","PERIAPSIS":"546.475","APOAPSIS":"547.900","BSTAR":"0.00106750000000","TLE_LINE2":"2 48695  53.0516 185.1155 0001029  76.8618 283.2486 15.06408479103762","CENTER_NAME":"EARTH","MEAN_MOTION_DDOT":"0.0000000000000","TIME_SYSTEM":"UTC","OBJECT_NAME":"STARLINK-2616","REV_AT_EPOCH":"10376","DECAY_DATE":null,"OBJECT_ID":"2021-044BK","MEAN_MOTION_DOT":"0.00015658","CLASSIFICATION_TYPE":"U","EPOCH":"2023-04-10T06:02:34.022688","MEAN_MOTION":"15.06408479","ELEMENT_SET_NO":"999","FILE":"3885195","COUNTRY_CODE":"US","ECCENTRICITY":"0.00010290","TLE_LINE1":"1 48695U 21044BK  23100.25178267  .00015658  00000-0  10675-2 0  9993","ARG_OF_PERICENTER":"76.8618","INCLINATION":"53.0516","PERIOD":"95.592","RA_OF_ASC_NODE":"185.1155","EPHEMERIS_TYPE":"0","LAUNCH_DATE":"2021-05-26","GP_ID":"229848173","SEMIMAJOR_AXIS":"6925.323","RCS_SIZE":"LARGE","SITE":"AFETR","OBJECT_TYPE":"PAYLOAD","NORAD_CAT_ID":"48695","REF_FRAME":"TEME"},{"GP_ID":"229846923","RCS_SIZE":"LARGE","SEMIMAJOR_AXIS":"6925.323","SITE":"AFETR","OBJECT_TYPE":"PAYLOAD","REF_FRAME":"TEME","NORAD_CAT_ID":"48696","EPHEMERIS_TYPE":"0","RA_OF_ASC_NODE":"190.1596","LAUNCH_DATE":"2021-05-26","COUNTRY_CODE":"US","TLE_LINE1":"1 48696U 21044BL  23100.24211618  .00018074  00000-0  12289-2 0  9999","ECCENTRICITY":"0.00010480","ARG_OF_PERICENTER":"70.3668","INCLINATION":"53.0510","PERIOD":"95.592","FILE":"3885195","EPOCH":"2023-04-10T05:48:38.837952","CLASSIFICATION_TYPE":"U","MEAN_MOTION":"15.06408353","ELEMENT_SET_NO":"999","OBJECT_NAME":"STARLINK-2753","REV_AT_EPOCH":"10369","DECAY_DATE":null,"OBJECT_ID":"2021-044BL","MEAN_MOTION_DOT":"0.00018074","TLE_LINE2":"2 48696  53.0510 190.1596 0001048  70.3668 289.7434 15.06408353103694","MEAN_MOTION_DDOT":"0.0000000000000","TIME_SYSTEM":"UTC","CENTER_NAME":"EARTH","MEAN_ELEMENT_THEORY":"SGP4","MEAN_ANOMALY":"289.7434","PERIAPSIS":"546.462","APOAPSIS":"547.914","BSTAR":"0.00122890000000"},{"ELEMENT_SET_NO":"999","MEAN_MOTION":"15.06416889","CLASSIFICATION_TYPE":"U","EPOCH":"2023-04-10T06:31:05.306880","MEAN_MOTION_DOT":"0.00024108","DECAY_DATE":null,"OBJECT_ID":"2021-044BM","REV_AT_EPOCH":"10369","OBJECT_NAME":"STARLINK-2715","MEAN_MOTION_DDOT":"0.0000000000000","CENTER_NAME":"EARTH","TIME_SYSTEM":"UTC","TLE_LINE2":"2 48697  53.0521 189.9857 0001566 107.7087 252.4073 15.06416889103697","BSTAR":"0.00163110000000","APOAPSIS":"548.246","PERIAPSIS":"546.077","MEAN_ANOMALY":"252.4073","MEAN_ELEMENT_THEORY":"SGP4","NORAD_CAT_ID":"48697","REF_FRAME":"TEME","OBJECT_TYPE":"PAYLOAD","SITE":"AFETR","SEMIMAJOR_AXIS":"6925.297","RCS_SIZE":"LARGE","GP_ID":"229847673","LAUNCH_DATE":"2021-05-26","RA_OF_ASC_NODE":"189.9857","EPHEMERIS_TYPE":"0","PERIOD":"95.591","INCLINATION":"53.0521","ARG_OF_PERICENTER":"107.7087","TLE_LINE1":"1 48697U 21044BM  23100.27158920  .00024108  00000-0  16311-2 0  9994","ECCENTRICITY":"0.00015660","COUNTRY_CODE":"US","FILE":"3885195"}];
